NORAD_CAT_ID,OBJECT_NAME,OBJECT_TYPE,EPOCH,MEAN_MOTION,ECCENTRICITY,INCLINATION,RA_OF_ASC_NODE,ARG_OF_PERICENTER,MEAN_ANOMALY,BSTAR,MEAN_MOTION_DOT,MEAN_MOTION_DDOT,TLE_LINE0,TLE_LINE1,TLE_LINE2,SEMIMAJOR_AXIS,PERIOD,APOGEE,PERIGEE,DECAYED
50194.0,STARLINK-3269,PAYLOAD,2024-08-12 11:05:21,15.0888642,0.000163,53.2152,296.9429,108.0052,252.1118,0.0012608,0.0001986,0.0,0 STARLINK-3269,1 50194U 21125AQ  24225.46205194  .00019860  00000-0  12608-2 0  9999,2 50194  53.2152 296.9429 0001630 108.0052 252.1118 15.08886420149574,6917.739,95.435,540.731,538.476,0.0
50194.0,STARLINK-3269,PAYLOAD,2024-08-12 22:13:01,15.08914129,7.53e-05,53.2149,294.8606,56.5873,303.5191,0.0018662,0.00029598,0.0,0 STARLINK-3269,1 50194U 21125AQ  24225.92571525  .00029598  00000-0  18662-2 0  9999,2 50194  53.2149 294.8606 0000753  56.5873 303.5191 15.08914129150164,6917.654,95.433,540.04,538.998,0.0
50194.0,STARLINK-3269,PAYLOAD,2024-08-13 04:34:34,15.08862645,0.0002385,53.2141,293.6731,77.1562,282.9696,-0.00039646,-6.597e-05,0.0,0 STARLINK-3269,1 50194U 21125AQ  24226.19067983 -.00006597  00000-0 -39646-3 0  9999,2 50194  53.2141 293.6731 0002385  77.1562 282.9696 15.08862645149689,6917.811,95.436,541.326,538.026,0.0
50194.0,STARLINK-3269,PAYLOAD,2024-08-13 10:56:09,15.08749051,0.0001312,53.2158,292.4844,79.7057,280.4083,-0.0029122,-0.00046223,0.0,0 STARLINK-3269,1 50194U 21125AQ  24226.45566844 -.00046223  00000-0 -29122-2 0  9995,2 50194  53.2158 292.4844 0001312  79.7057 280.4083 15.08749051149728,6918.158,95.443,540.931,539.116,0.0
50194.0,STARLINK-3269,PAYLOAD,2024-08-13 14:06:56,15.08734431,0.0001033,53.2162,291.8893,74.2743,285.8363,-0.0015354,-0.0002457,0.0,0 STARLINK-3269,1 50194U 21125AQ  24226.58815852 -.00024570  00000-0 -15354-2 0  9998,2 50194  53.2162 291.8893 0001033  74.2743 285.8363 15.08734431150269,6918.203,95.444,540.783,539.353,0.0
50194.0,STARLINK-3269,PAYLOAD,2024-08-13 22:03:53,15.08792012,0.0001402,53.2151,290.3997,87.7858,272.3294,0.00050132,7.689e-05,0.0,0 STARLINK-3269,1 50194U 21125AQ  24226.91936661  .00007689  00000-0  50132-3 0  9991,2 50194  53.2151 290.3997 0001402  87.7858 272.3294 15.08792012150311,6918.027,95.441,540.862,538.922,0.0
50194.0,STARLINK-3269,PAYLOAD,2024-08-14 04:25:26,15.08806007,7e-05,53.2171,289.2121,41.358,318.7465,0.0017134,0.0002706,0.0,0 STARLINK-3269,1 50194U 21125AQ  24227.18433237  .00027060  00000-0  17134-2 0  9991,2 50194  53.2171 289.2121 0000700  41.3580 318.7465 15.08806007149837,6917.984,95.44,540.334,539.365,0.0
50194.0,STARLINK-3269,PAYLOAD,2024-08-14 10:46:58,15.08872354,0.0001551,53.2155,288.0226,57.2837,302.8304,0.0036278,0.00057975,0.0,0 STARLINK-3269,1 50194U 21125AQ  24227.44929185  .00057975  00000-0  36278-2 0  9990,2 50194  53.2155 288.0226 0001551  57.2837 302.8304 15.08872354149876,6917.781,95.436,540.719,538.574,0.0
50194.0,STARLINK-3269,PAYLOAD,2024-08-15 10:37:44,15.08869795,0.000173,53.2156,283.5618,62.784,297.3328,0.0007552,0.00011761,0.0,0 STARLINK-3269,1 50194U 21125AQ  24228.44287831  .00011761  00000-0  75520-3 0  9993,2 50194  53.2156 283.5618 0001730  62.7840 297.3328 15.08869795150541,6917.789,95.436,540.851,538.458,0.0
50194.0,STARLINK-3269,PAYLOAD,2024-08-15 18:34:39,15.08865505,0.000157,53.2146,282.0761,61.0656,299.0493,0.00044865,6.864e-05,0.0,0 STARLINK-3269,1 50194U 21125AQ  24228.77407349  .00006864  00000-0  44865-3 0  9993,2 50194  53.2146 282.0761 0001570  61.0656 299.0493 15.08865505150077,6917.802,95.436,540.754,538.581,0.0
50194.0,STARLINK-3269,PAYLOAD,2024-08-16 10:28:29,15.08892448,0.0001448,53.2148,279.1043,67.0388,293.0757,-0.0010874,-0.00017577,0.0,0 STARLINK-3269,1 50194U 21125AQ  24229.43644798 -.00017577  00000-0 -10874-2 0  9995,2 50194  53.2148 279.1043 0001448  67.0388 293.0757 15.08892448150175,6917.72,95.434,540.587,538.583,0.0
50194.0,STARLINK-3269,PAYLOAD,2024-08-17 02:22:22,15.08844145,0.0001736,53.2157,276.13,72.688,287.4302,-3.8266e-05,-8.97e-06,0.0,0 STARLINK-3269,1 50194U 21125AQ  24230.09887225 -.00000897  00000-0 -38266-4 0  9997,2 50194  53.2157 276.1300 0001736  72.6880 287.4302 15.08844145150272,6917.868,95.437,540.934,538.532,0.0
50194.0,STARLINK-3269,PAYLOAD,2024-08-17 07:08:31,15.0884321,0.0001638,53.2153,275.2346,84.6268,275.4911,-0.00013325,-2.408e-05,0.0,0 STARLINK-3269,1 50194U 21125AQ  24230.29759095 -.00002408  00000-0 -13325-3 0  9990,2 50194  53.2153 275.2346 0001638  84.6268 275.4911 15.08843210150828,6917.871,95.437,540.869,538.602,0.0
50194.0,STARLINK-3269,PAYLOAD,2024-08-18 11:45:27,15.08852624,0.0001626,53.216,269.8804,86.3962,273.7216,0.00010813,1.434e-05,0.0,0 STARLINK-3269,1 50194U 21125AQ  24231.48990472  .00001434  00000-0  10813-3 0  9993,2 50194  53.2160 269.8804 0001626  86.3962 273.7216 15.08852624150481,6917.842,95.437,540.832,538.582,0.0
50194.0,STARLINK-3269,PAYLOAD,2024-08-19 11:36:15,15.0883839,0.0001543,53.2146,265.4207,85.1986,274.9183,5.7983e-05,6.35e-06,0.0,0 STARLINK-3269,1 50194U 21125AQ  24232.48351322  .00000635  00000-0  57983-4 0  9991,2 50194  53.2146 265.4207 0001543  85.1986 274.9183 15.08838390150632,6917.885,95.438,540.818,538.683,0.0
50194.0,STARLINK-3269,PAYLOAD,2024-08-20 11:27:02,15.08846636,0.0001493,53.2142,260.9591,88.5232,271.5931,9.7237e-05,1.26e-05,0.0,0 STARLINK-3269,1 50194U 21125AQ  24233.47710940  .00001260  00000-0  97237-4 0  9997,2 50194  53.2142 260.9591 0001493  88.5232 271.5931 15.08846636151300,6917.86,95.437,540.758,538.692,0.0
50194.0,STARLINK-3269,PAYLOAD,2024-08-21 11:17:49,15.08837031,0.0001605,53.2149,256.4975,94.308,265.8096,8.742e-05,1.103e-05,0.0,0 STARLINK-3269,1 50194U 21125AQ  24234.47071638  .00001103  00000-0  87420-4 0  9991,2 50194  53.2149 256.4975 0001605  94.3080 265.8096 15.08837031150939,6917.889,95.438,540.865,538.644,0.0
